LEMUR-2-PETERG          
1 42841U 17042S   26068.48235713  .00023240  00000+0  81076-3 0  9993
2 42841  97.3980 253.6596 0003700 341.6938  18.4169 15.29611459473171
STARLINK-34598          
1 64759U 25147E   26068.75070306  .00020032  00000+0  68603-3 0  9992
2 64759  53.1584 242.2833 0001372  72.3669 287.7482 15.30228609 38712
